     2.10           N: GPS NAV DATA                         RINEX VERSION / TYPE
RTKCONV 2.4.2                           20150404 011340 UTC PGM / RUN BY / DATE 
log: D:\150403_downtown_1loop\rover_7p_car_antenna_150403.  COMMENT             
format: u-blox                                              COMMENT             
                                                            END OF HEADER       
 7 15  4  3 21 59 44.0  .452690292150E-03  .284217094304E-11  .000000000000E+00
     .130000000000E+02 -.854375000000E+02  .456983320904E-08 -.206140064065E+01
    -.462308526039E-05  .814622093458E-02  .579282641411E-05  .515372472000E+04
     .511184000000E+06  .894069671631E-07  .223353807829E+01 -.141561031342E-06
     .970569020553E+00  .273250000000E+03 -.275759806905E+01 -.814641075928E-08
    -.258225041824E-09  .100000000000E+01  .183800000000E+04  .000000000000E+00
     .240000000000E+01  .000000000000E+00 -.111758708954E-07  .130000000000E+02
     .504006000000E+06  .400000000000E+01
 8 15  4  3 22  0  0.0  .191596336663E-04  .341060513165E-12  .000000000000E+00
     .650000000000E+02 -.855937500000E+02  .414802992495E-08 -.488965572042E+00
    -.430271029472E-05  .145089912694E-01  .694952905178E-05  .515358564568E+04
     .511200000000E+06  .193715095520E-06  .233985446474E+01  .171363353729E-06
     .994251203628E+00  .262906250000E+03 -.268091201013E+01 -.805926427213E-08
    -.438232539859E-09  .100000000000E+01  .183800000000E+04  .000000000000E+00
     .340000000000E+01  .630000000000E+02 -.512227416039E-08  .650000000000E+02
     .504006000000E+06  .400000000000E+01
30 15  4  3 22  0  0.0 -.747689045966E-04  .341060513165E-11  .000000000000E+00
     .490000000000E+02 -.830625000000E+02  .487448875631E-08 -.188168792061E+01
    -.438839197159E-05  .118135369848E-02  .630505383015E-05  .515375520134E+04
     .511200000000E+06 -.298023223877E-07  .228363339943E+01 -.614672899246E-07
     .956325625887E+00  .259625000000E+03  .284423393854E+01 -.832070373357E-08
    -.359657838335E-09  .100000000000E+01  .183800000000E+04  .000000000000E+00
     .240000000000E+01  .000000000000E+00  .325962901115E-08  .490000000000E+02
     .504006000000E+06  .400000000000E+01
27 15  4  3 22  0  0.0  .624828971922E-04  .261479726760E-11  .000000000000E+00
     .610000000000E+02  .551875000000E+02  .477519890620E-08  .787352221112E+00
     .296346843243E-05  .224665133283E-02  .502355396748E-05  .515368383598E+04
     .511200000000E+06  .111758708954E-07 -.198400246978E+01 -.298023223877E-07
     .966483538010E+00  .280218750000E+03  .148064244362E+00 -.831570352529E-08
     .260010830495E-09  .100000000000E+01  .183800000000E+04  .000000000000E+00
     .240000000000E+01  .000000000000E+00  .186264514923E-08  .610000000000E+02
     .504006000000E+06  .400000000000E+01
10 15  4  3 22  0  0.0 -.169571954757E-03 -.136424205266E-11  .000000000000E+00
     .770000000000E+02  .217500000000E+02  .456554731623E-08  .182238856699E+01
     .107660889626E-05  .146149313077E-01  .120047479868E-04  .515368624306E+04
     .511200000000E+06 -.305473804474E-06  .122673485615E+00 -.173225998878E-06
     .941936784979E+00  .139562500000E+03  .925535082903E+00 -.809319425688E-08
     .682171272315E-10  .100000000000E+01  .183800000000E+04  .000000000000E+00
     .340000000000E+01  .000000000000E+00 -.325962901115E-08  .770000000000E+02
     .504066000000E+06  .400000000000E+01
32 15  4  3 22  0  0.0 -.184961594641E-03  .943600753089E-11  .000000000000E+00
     .860000000000E+02  .359375000000E+02  .440696928225E-08 -.155505512638E+01
     .178068876266E-05  .112814046443E-01  .122953206301E-04  .515380511093E+04
     .511200000000E+06 -.596046447754E-07  .196089691488E+00 -.162050127983E-06
     .947599591647E+00  .136000000000E+03  .296658106029E-01 -.791390107432E-08
     .300012496725E-09  .100000000000E+01  .183800000000E+04  .000000000000E+00
     .240000000000E+01  .000000000000E+00 -.372529029846E-08  .860000000000E+02
     .504066000000E+06  .400000000000E+01
 6 15  4  3 22  0  0.0  .126333441585E-03  .101181285572E-10  .000000000000E+00
     .620000000000E+02 -.609375000000E+02  .465769401165E-08  .553490981064E+00
    -.317022204399E-05  .215640640818E-03  .615417957306E-05  .515372296715E+04
     .511200000000E+06  .242143869400E-07 -.935222546904E+00  .242143869400E-07
     .961739723314E+00  .262656250000E+03 -.313697300114E+01 -.822998566908E-08
    -.472162524607E-09  .100000000000E+01  .183800000000E+04  .000000000000E+00
     .240000000000E+01  .000000000000E+00  .465661287308E-08  .620000000000E+02
     .504246000000E+06  .400000000000E+01
20 15  4  3 22  0  0.0  .306587666273E-03  .397903932026E-11  .000000000000E+00
     .760000000000E+02  .151250000000E+02  .494663461862E-08  .124245693183E+01
     .772997736931E-06  .572768517304E-02  .118557363749E-04  .515578953743E+04
     .511200000000E+06 -.726431608200E-07  .427664307192E-01 -.502914190292E-07
     .926888688817E+00  .133750000000E+03  .122143600009E+01 -.825927260328E-08
    -.353586156854E-10  .100000000000E+01  .183800000000E+04  .000000000000E+00
     .240000000000E+01  .000000000000E+00 -.838190317154E-08  .760000000000E+02
     .504516000000E+06  .400000000000E+01
19 15  4  3 21 59 44.0 -.506169628352E-03 -.125055521494E-11  .000000000000E+00
     .160000000000E+02  .437187500000E+02  .482162941165E-08 -.107213952520E+00
     .230595469475E-05  .111532260198E-01  .451691448689E-05  .515370466423E+04
     .511184000000E+06  .428408384323E-07 -.188673739156E+01  .115483999252E-06
     .968621964364E+00  .292406250000E+03  .526544087098E+00 -.847642450568E-08
     .180364655769E-09  .100000000000E+01  .183800000000E+04  .000000000000E+00
     .240000000000E+01  .000000000000E+00 -.149011611938E-07  .160000000000E+02
     .505056000000E+06  .400000000000E+01
